{
    "week": 291,
    "satellites": [
        {
            "Name": "GSAT0101 (GALILEO-PFM)",
            "Line1": "1 37846U 11060A   24307.57072440 -.00000075  00000+0  00000+0 0  9992",
            "Line2": "2 37846  57.1218 357.7928 0001396 300.3341  59.7227  1.70475926 81033",
            "SatelliteNumber": "37846",
            "Classification": "U",
            "LaunchYear": "11",
            "LaunchNumber": "060",
            "PieceOfLaunch": "A",
            "EpochYear": "24",
            "EpochDay": 307.5707244,
            "FirstDerivativeMeanMotion": -7.5e-07,
            "SecondDerivativeMeanMotion": "00000+0",
            "BSTAR": "00000+0",
            "SetNumber": "999",
            "Inclination": 57.1218,
            "RAAN": 357.7928,
            "Eccentricity": 0.0001396,
            "ArgumentOfPerigee": 300.3341,
            "MeanAnomaly": 59.7227,
            "MeanMotion": 1.70475926,
            "RevolutionNumber": "8103"
        },
        {
            "Name": "GSAT0102 (GALILEO-FM2)",
            "Line1": "1 37847U 11060B   24304.55021593 -.00000086  00000+0  00000+0 0  9993",
            "Line2": "2 37847  57.1224 357.8747 0002999 296.3844  55.3588  1.70475577 80980",
            "SatelliteNumber": "37847",
            "Classification": "U",
            "LaunchYear": "11",
            "LaunchNumber": "060",
            "PieceOfLaunch": "B",
            "EpochYear": "24",
            "EpochDay": 304.55021593,
            "FirstDerivativeMeanMotion": -8.6e-07,
            "SecondDerivativeMeanMotion": "00000+0",
            "BSTAR": "00000+0",
            "SetNumber": "999",
            "Inclination": 57.1224,
            "RAAN": 357.8747,
            "Eccentricity": 0.0002999,
            "ArgumentOfPerigee": 296.3844,
            "MeanAnomaly": 55.3588,
            "MeanMotion": 1.70475577,
            "RevolutionNumber": "8098"
        },
        {
            "Name": "GSAT0103 (GALILEO-FM3)",
            "Line1": "1 38857U 12055A   24307.61011136  .00000073  00000+0  00000+0 0  9997",
            "Line2": "2 38857  55.4713 117.7994 0001947 251.8145 108.1847  1.70473624 74928",
            "SatelliteNumber": "38857",
            "Classification": "U",
            "LaunchYear": "12",
            "LaunchNumber": "055",
            "PieceOfLaunch": "A",
            "EpochYear": "24",
            "EpochDay": 307.61011136,
            "FirstDerivativeMeanMotion": 7.3e-07,
            "SecondDerivativeMeanMotion": "00000+0",
            "BSTAR": "00000+0",
            "SetNumber": "999",
            "Inclination": 55.4713,
            "RAAN": 117.7994,
            "Eccentricity": 0.0001947,
            "ArgumentOfPerigee": 251.8145,
            "MeanAnomaly": 108.1847,
            "MeanMotion": 1.70473624,
            "RevolutionNumber": "7492"
        },
        {
            "Name": "GSAT0201 (GALILEO 5)",
            "Line1": "1 40128U 14050A   24309.22510202 -.00000040  00000+0  00000+0 0  9990",
            "Line2": "2 40128  49.5155 297.4249 1614665 156.7094 211.5319  1.85519609 67373",
            "SatelliteNumber": "40128",
            "Classification": "U",
            "LaunchYear": "14",
            "LaunchNumber": "050",
            "PieceOfLaunch": "A",
            "EpochYear": "24",
            "EpochDay": 309.22510202,
            "FirstDerivativeMeanMotion": -4e-07,
            "SecondDerivativeMeanMotion": "00000+0",
            "BSTAR": "00000+0",
            "SetNumber": "999",
            "Inclination": 49.5155,
            "RAAN": 297.4249,
            "Eccentricity": 0.1614665,
            "ArgumentOfPerigee": 156.7094,
            "MeanAnomaly": 211.5319,
            "MeanMotion": 1.85519609,
            "RevolutionNumber": "6737"
        },
        {
            "Name": "GSAT0202 (GALILEO 6)",
            "Line1": "1 40129U 14050B   24307.32691125 -.00000054  00000+0  00000+0 0  9999",
            "Line2": "2 40129  49.5339 296.5802 1613937 157.4303 210.5668  1.85520370 69505",
            "SatelliteNumber": "40129",
            "Classification": "U",
            "LaunchYear": "14",
            "LaunchNumber": "050",
            "PieceOfLaunch": "B",
            "EpochYear": "24",
            "EpochDay": 307.32691125,
            "FirstDerivativeMeanMotion": -5.4e-07,
            "SecondDerivativeMeanMotion": "00000+0",
            "BSTAR": "00000+0",
            "SetNumber": "999",
            "Inclination": 49.5339,
            "RAAN": 296.5802,
            "Eccentricity": 0.1613937,
            "ArgumentOfPerigee": 157.4303,
            "MeanAnomaly": 210.5668,
            "MeanMotion": 1.8552037,
            "RevolutionNumber": "6950"
        },
        {
            "Name": "GSAT0203 (GALILEO 7)",
            "Line1": "1 40544U 15017A   24307.93619360 -.00000074  00000+0  00000+0 0  9994",
            "Line2": "2 40544  56.9168 357.6980 0005680 253.8869 106.1209  1.70476253 59123",
            "SatelliteNumber": "40544",
            "Classification": "U",
            "LaunchYear": "15",
            "LaunchNumber": "017",
            "PieceOfLaunch": "A",
            "EpochYear": "24",
            "EpochDay": 307.9361936,
            "FirstDerivativeMeanMotion": -7.4e-07,
            "SecondDerivativeMeanMotion": "00000+0",
            "BSTAR": "00000+0",
            "SetNumber": "999",
            "Inclination": 56.9168,
            "RAAN": 357.698,
            "Eccentricity": 0.000568,
            "ArgumentOfPerigee": 253.8869,
            "MeanAnomaly": 106.1209,
            "MeanMotion": 1.70476253,
            "RevolutionNumber": "5912"
        },
        {
            "Name": "GSAT0204 (GALILEO 8)",
            "Line1": "1 40545U 15017B   24307.60419166 -.00000075  00000+0  00000+0 0  9992",
            "Line2": "2 40545  56.9231 357.7231 0005694 244.2112 115.8003  1.70475805 22160",
            "SatelliteNumber": "40545",
            "Classification": "U",
            "LaunchYear": "15",
            "LaunchNumber": "017",
            "PieceOfLaunch": "B",
            "EpochYear": "24",
            "EpochDay": 307.60419166,
            "FirstDerivativeMeanMotion": -7.5e-07,
            "SecondDerivativeMeanMotion": "00000+0",
            "BSTAR": "00000+0",
            "SetNumber": "999",
            "Inclination": 56.9231,
            "RAAN": 357.7231,
            "Eccentricity": 0.0005694,
            "ArgumentOfPerigee": 244.2112,
            "MeanAnomaly": 115.8003,
            "MeanMotion": 1.70475805,
            "RevolutionNumber": "2216"
        },
        {
            "Name": "GSAT0205 (GALILEO 9)",
            "Line1": "1 40889U 15045A   24307.37244051 -.00000003  00000+0  00000+0 0  9998",
            "Line2": "2 40889  55.1587 237.9536 0004523  21.3986 338.6243  1.70473046 56923",
            "SatelliteNumber": "40889",
            "Classification": "U",
            "LaunchYear": "15",
            "LaunchNumber": "045",
            "PieceOfLaunch": "A",
            "EpochYear": "24",
            "EpochDay": 307.37244051,
            "FirstDerivativeMeanMotion": -3e-08,
            "SecondDerivativeMeanMotion": "00000+0",
            "BSTAR": "00000+0",
            "SetNumber": "999",
            "Inclination": 55.1587,
            "RAAN": 237.9536,
            "Eccentricity": 0.0004523,
            "ArgumentOfPerigee": 21.3986,
            "MeanAnomaly": 338.6243,
            "MeanMotion": 1.70473046,
            "RevolutionNumber": "5692"
        },
        {
            "Name": "GSAT0206 (GALILEO 10)",
            "Line1": "1 40890U 15045B   24308.17968741  .00000002  00000+0  00000+0 0  9996",
            "Line2": "2 40890  55.1577 237.9267 0002830  10.6211 349.3951  1.70473015 56961",
            "SatelliteNumber": "40890",
            "Classification": "U",
            "LaunchYear": "15",
            "LaunchNumber": "045",
            "PieceOfLaunch": "B",
            "EpochYear": "24",
            "EpochDay": 308.17968741,
            "FirstDerivativeMeanMotion": 2e-08,
            "SecondDerivativeMeanMotion": "00000+0",
            "BSTAR": "00000+0",
            "SetNumber": "999",
            "Inclination": 55.1577,
            "RAAN": 237.9267,
            "Eccentricity": 0.000283,
            "ArgumentOfPerigee": 10.6211,
            "MeanAnomaly": 349.3951,
            "MeanMotion": 1.70473015,
            "RevolutionNumber": "5696"
        },
        {
            "Name": "GSAT0209 (GALILEO 12)",
            "Line1": "1 41174U 15079A   24308.34921813  .00000072  00000+0  00000+0 0  9994",
            "Line2": "2 41174  55.4935 117.4898 0002005 357.6788   2.3361  1.70474330 54709",
            "SatelliteNumber": "41174",
            "Classification": "U",
            "LaunchYear": "15",
            "LaunchNumber": "079",
            "PieceOfLaunch": "A",
            "EpochYear": "24",
            "EpochDay": 308.34921813,
            "FirstDerivativeMeanMotion": 7.2e-07,
            "SecondDerivativeMeanMotion": "00000+0",
            "BSTAR": "00000+0",
            "SetNumber": "999",
            "Inclination": 55.4935,
            "RAAN": 117.4898,
            "Eccentricity": 0.0002005,
            "ArgumentOfPerigee": 357.6788,
            "MeanAnomaly": 2.3361,
            "MeanMotion": 1.7047433,
            "RevolutionNumber": "5470"
        }
    ]
}